COSMOS 1933             
1 18958U 88020A   22088.63240030  .00002502  00000+0  17729-3 0  9994
2 18958  82.5312 217.5354 0012701  97.1730 263.0941 15.04337616832801
SL-3 R/B                
1 19046U 88032B   22088.59565578  .00001512  00000+0  11384-3 0  9999
2 19046  97.3940  91.0960 0038051 148.5473 211.8039 15.03394902834610
SL-16 R/B               
1 19120U 88039B   22088.59733991  .00000025  00000+0  34553-4 0  9997
2 19120  71.0144 234.7101 0020855  24.9798 335.2332 14.19238930753892
COSMOS 1953             
1 19210U 88050A   22088.60233918  .00002420  00000+0  15998-3 0  9998
2 19210  82.5141 138.4528 0014965  60.0860 300.1852 15.06870451819534
SL-8 R/B                
1 19257U 88053B   22088.57371428  .00000263  00000+0  96145-4 0  9994
2 19257  74.0475 245.4943 0019544  62.1945   4.5489 14.37572270769420
COSMOS 1975             
1 19573U 88093A   22088.51996102  .00002161  00000+0  14694-3 0  9992
2 19573  82.5160  94.2264 0015826 105.8423 254.4550 15.05753783801256
SL-14 R/B               
1 19574U 88093B   22088.10060890  .00000277  00000+0  30610-4 0  9997
2 19574  82.5310 312.5292 0022901 117.8634 356.2906 14.83448305787176
SL-16 R/B               
1 19650U 88102B   22088.34494457  .00000287  00000+0  16995-3 0  9999
2 19650  70.9995 303.3010 0012803  38.4182 321.7851 14.15822391722860
INTERCOSMOS 24          
1 20261U 89080A   22088.33272215  .00000589  00000+0  16991-3 0  9991
2 20261  82.6025 319.6527 1202426  28.1363 337.9675 12.56312282485592
SL-14 R/B               
1 20262U 89080C   22088.47915831  .00000110  00000+0  31850-4 0  9997
2 20262  82.6002  17.5277 1235674 234.9166 112.9913 12.49035764480133
DELTA 2 R/B(1)          
1 20303U 89085B   22088.53020614  .00018292  00000+0  50042-3 0  9994
2 20303  35.6379 235.3102 0084109 213.7890 145.7460 15.32930346768173
DELTA 1 R/B             
1 20323U 89089B   22088.57062190  .00000186  00000+0  57244-4 0  9994
2 20323  97.0910 143.0662 0071148 347.1723  12.7661 14.48477006686978
ARIANE 40 R/B           
1 20443U 90005H   22088.48149365  .00000175  00000+0  71898-4 0  9996
2 20443  98.4906 157.1953 0010173 198.5812 161.5005 14.38189687685549
DELTA 2 R/B(1)          
1 20453U 90008B   22088.50879749  .00010426  00000+0  55384-3 0  9990
2 20453  35.6259  17.2566 0271240 339.4860  19.5136 14.88222362707986
COSMOS 2058             
1 20465U 90010A   22088.49441565  .00001629  00000+0  13332-3 0  9997
2 20465  82.4926   7.6341 0015492 163.3450 196.8285 14.98616500725658
SL-14 R/B               
1 20466U 90010B   22088.52188372  .00000293  00000+0  34268-4 0  9994
2 20466  82.5061 178.3747 0020509   6.2466 353.9000 14.81497932714975
SL-14 R/B               
1 20511U 90018B   22088.56597390  .00000273  00000+0  32751-4 0  9994
2 20511  82.5210 127.6342 0018419 141.8017 331.3408 14.80147063709270
HST                     
1 20580U 90037B   22088.42487839  .00002686  00000+0  14948-3 0  9999
2 20580  28.4713 338.9419 0002405 252.2752 275.9765 15.10182633554101
SL-16 R/B               
1 20625U 90046B   22088.39217173  .00000060  00000+0  56001-4 0  9998
2 20625  70.9969  83.9764 0015248 326.8584  33.1582 14.14681258644534
COSMOS 2084             
1 20663U 90055A   22088.52392755  .00000920  00000+0  97252-4 0  9993
2 20663  62.7926 156.9431 0109373  41.4922 319.4410 14.92577344720361
SL-6 R/B(2)             
1 20666U 90055D   22088.33254848  .00001817  00000+0  16720-3 0  9991
2 20666  62.7837  72.3242 0125952  64.5645 296.8421 14.92854713722297
SL-8 R/B                
1 20775U 90078B   22088.57325880  .00018209  00000+0  86951-3 0  9994
2 20775  82.9258  49.2815 0556501 336.4087  21.2440 14.38469095599037
SL-8 R/B                
1 21088U 91006B   22088.57503674  .00000087  00000+0  72037-4 0  9999
2 21088  82.9447 161.8631 0024053 110.2541 359.8875 13.77189646565697
OKEAN-3                 
1 21397U 91039A   22088.57219566  .00001497  00000+0  13964-3 0  9991
2 21397  82.5184 278.5540 0018279 149.3643 210.8649 14.93439889649254
COSMOS 2151             
1 21422U 91042A   22088.54861704  .00001088  00000+0  10347-3 0  9996
2 21422  82.5036  23.8876 0012978 215.7780 144.2572 14.92502587647766
SL-14 R/B               
1 21423U 91042B   22088.59960788  .00000264  00000+0  31940-4 0  9992
2 21423  82.4920 129.2452 0016111 290.9925  68.9564 14.79895828639816
ERS-1                   
1 21574U 91050A   22088.53378085  .00000125  00000+0  55924-4 0  9999
2 21574  98.6897  56.4243 0033301 153.6522 206.6367 14.37872203608535
ARIANE 40 R/B           
1 21610U 91050F   22088.48459477  .00000215  00000+0  80345-4 0  9994
2 21610  98.3875 159.5293 0004439 105.2106 265.7165 14.41018623611315
INTERCOSMOS 25          
1 21819U 91086A   22088.54334249  .00001217  00000+0  24847-3 0  9997
2 21819  82.5721  96.6495 1513215 326.3824  24.9533 12.05570348322607
SL-8 R/B                
1 21876U 92008B   22088.60776420 -.00000002  00000+0 -17261-4 0  9999
2 21876  82.9233 259.1586 0034492 196.9616 232.8128 13.75694746511262
SL-8 R/B                
1 21938U 92020B   22088.59255727  .00000016  00000+0  11821-5 0  9992
2 21938  82.9300 143.9008 0029104   2.5373 104.7957 13.75305861503031
COSMOS 2219             
1 22219U 92076A   22088.56840577  .00000195  00000+0  12819-3 0  9990
2 22219  71.0583 149.5993 0020069 243.4586 116.4479 14.13676763514681
SL-16 R/B               
1 22220U 92076B   22088.43113804  .00000091  00000+0  69825-4 0  9999
2 22220  71.0026 343.3222 0011408 139.8860  34.7880 14.16486491517719
COSMOS 2221             
1 22236U 92080A   22088.59965461  .00001141  00000+0  12057-3 0  9993
2 22236  82.5103 209.1950 0015593 327.3033  32.7218 14.88308292565954
SL-16 R/B               
1 22285U 92093B   22088.57409044 -.00000023  00000+0  12416-4 0  9998
2 22285  71.0203 148.5938 0005262 319.1794  40.8934 14.15074835509269
COSMOS 2228             
1 22286U 92094A   22088.58925113  .00001061  00000+0  11091-3 0  9990
2 22286  82.5221 166.2370 0022459  82.4539 277.9229 14.88551174561149
SL-16 R/B               
1 22566U 93016B   22088.49767676  .00000244  00000+0  15041-3 0  9995
2 22566  71.0111   1.2290 0010652 344.7058  15.3741 14.14998086498285
COSMOS 2242             
1 22626U 93024A   22088.56536015  .00001170  00000+0  12324-3 0  9990
2 22626  82.5248 194.6496 0020239  82.9262 277.4257 14.88387559565528
SL-16 R/B               
1 22803U 93059B   22088.56547826 -.00000124  00000+0 -37897-4 0  9990
2 22803  70.9904 169.1804 0019423 248.5130 111.3923 14.16851431475388
ARIANE 40 R/B           
1 22830U 93061H   22088.42060187  .00000148  00000+0  72406-4 0  9997
2 22830  98.6722 151.3619 0010472 209.5276 150.5317 14.31524584487819
COSMOS 2278             
1 23087U 94023A   22088.59349163 -.00000069  00000+0 -11691-4 0  9996
2 23087  71.0526 308.7088 0006783  64.9294 295.2532 14.13848727441085
SL-16 R/B               
1 23088U 94023B   22088.63175067 -.00000297  00000+0 -12940-3 0  9992
2 23088  70.9999 216.4169 0005074 303.3199  56.7437 14.14698776442262
SL-16 R/B               
1 23343U 94074B   22088.59625412  .00000286  00000+0  47812-4 0  9994
2 23343  97.9035 143.2130 0006253 204.0013 278.0039 14.76972466474376
SL-16 R/B               
1 23405U 94077B   22088.60599813  .00000255  00000+0  15581-3 0  9996
2 23405  70.9819 143.4002 0003893 227.6992 132.3801 14.15253786412326
ERS-2                   
1 23560U 95021A   22088.58136338  .00007550  00000+0  30112-3 0  9996
2 23560  98.5138 342.9896 0004612 105.4992 254.6753 15.25541707441138
ARIANE 40+ R/B          
1 23561U 95021B   22088.61666708  .00000209  00000+0  83643-4 0  9992
2 23561  98.6328 145.5759 0007995 120.8405 356.1422 14.38104543412015
SL-16 R/B               
1 23705U 95058B   22088.39544513  .00000208  00000+0  13132-3 0  9990
2 23705  71.0239 325.2689 0011865 166.2593 193.8855 14.15168260363925
SL-16 R/B               
1 24298U 96051B   22088.42700872 -.00000002  00000+0  25128-4 0  9990
2 24298  70.8211 339.6919 0013550 117.0941 243.1563 14.12401395318133
ORBVIEW 2 (SEASTAR)     
1 24883U 97037A   22088.59907802  .00000236  00000+0  10122-3 0  9990
2 24883  98.6671 211.7650 0002163  14.5559 345.5687 14.33694300301866
SL-16 R/B               
1 25400U 98043G   22088.55021590  .00000026  00000+0  29593-4 0  9991
2 25400  98.6671  25.5706 0008940 238.6555 121.3751 14.25501941233639
SL-16 R/B               
1 25407U 98045B   22088.60930324 -.00000138  00000+0 -46001-4 0  9999
2 25407  71.0134 331.1762 0005503  50.6767 309.4843 14.15856042223108
ISS (ZARYA)             
1 25544U 98067A   22088.74870670  .00015426  00000+0  28117-3 0  9998
2 25544  51.6460  10.0410 0004318 329.6774  51.7949 15.49645087332860
CZ-4B R/B               
1 25732U 99025C   22088.57336264  .00000043  00000+0  42484-4 0  9992
2 25732  98.8652 130.1259 0037883 154.4285   8.5729 14.17717201183934
OKEAN-O                 
1 25860U 99039A   22088.57836993  .00000429  00000+0  68526-4 0  9996
2 25860  98.1496 127.7143 0000918  74.1286 286.0024 14.76862541221462
SL-16 R/B               
1 25861U 99039B   22088.56596921  .00000365  00000+0  57094-4 0  9997
2 25861  98.1874 114.2120 0014650 226.3018 133.6980 14.78749993223693
DELTA 2 R/B             
1 25876U 99041E   22088.57900434  .00000984  00000+0  20748-3 0  9997
2 25876  51.7627 263.2403 0531080  80.6342 285.4205 14.04896778159991
HELIOS 1B               
1 25977U 99064A   22088.50385036  .00000492  00000+0  68194-4 0  9994
2 25977  98.3245 279.4751 0002305  70.7411 289.4050 14.82692388471436
TERRA                   
1 25994U 99068A   22088.55377422  .00000293  00000+0  74906-4 0  9999
2 25994  98.1427 162.2859 0001367  96.6261  10.3163 14.57151563184861
SL-16 R/B               
1 26070U 00006B   22088.60410153  .00000181  00000+0  11686-3 0  9995
2 26070  71.0014 247.0153 0018066 220.8177 139.1593 14.15483292144616
